IRVINE01                
1 43693U 18088D   21301.18940661  .00011437  00000-0  42730-3 0  9997
2 43693  85.0306 106.6426 0013766 252.0280 107.9464 15.27138570164681
PROXIMA I               
1 43694U 18088E   21301.44918557  .00003986  00000-0  16498-3 0  9998
2 43694  85.0282 107.1623 0016257 247.8310 112.1208 15.23486986164625
PROXIMA II              
1 43696U 18088G   21301.25070262  .00003925  00000-0  16246-3 0  9995
2 43696  85.0283 107.3056 0016293 248.6359 111.3146 15.23480568164589
FACSAT-1                
1 43721U 18096C   21301.55289237  .00005533  00000-0  19303-3 0  9994
2 43721  97.3751  17.6801 0017010 154.6386 318.0634 15.29889492162467
CENTAURI-2              
1 43722U 18096D   21301.19867797  .00009429  00000-0  31290-3 0  9995
2 43722  97.3779  18.4279 0016594 154.0523 206.1554 15.31320168162460
INNOSAT-2               
1 43738U 18096V   21301.51949981  .00011548  00000-0  33481-3 0  9993
2 43738  97.3858  23.3994 0021048 151.6569 335.7641 15.35480069162802
SIRION PATHFINDER-2     
1 43759U 18099B   21301.40055901  .00001145  00000-0  10796-3 0  9993
2 43759  97.6512   8.9808 0013094 323.4011  36.6315 14.95653278158350
CORVUS BC4              
1 43767U 18099K   21301.46358183  .00001102  00000-0  10569-3 0  9997
2 43767  97.6480   7.8684 0010750 330.0951  29.9654 14.95070484158304
MOVE-II                 
1 43780U 18099Y   21301.44396174  .00001285  00000-0  11886-3 0  9997
2 43780  97.6542   9.3131 0012630 334.2509  25.8082 14.96207003158351
SPACEBEE-7              
1 43816U 18099BL  21301.43942843  .00000883  00000-0  83019-4 0  9997
2 43816  97.6562   9.9675 0012263 317.4819  42.5451 14.96362514157940
SPACEBEE-5              
1 43817U 18099BM  21301.19056855  .00003500  00000-0  30175-3 0  9993
2 43817  97.6654  11.4258 0011865 312.7909  47.2315 14.97903356157973
SPACEBEE-6              
1 43818U 18099BN  21301.16656231  .00001556  00000-0  14069-3 0  9998
2 43818  97.6596  10.2187 0012036 318.0244  42.0054 14.96830075158070
SHIELDS 1               
1 43850U 18104B   21301.13329944  .00001874  00000-0  79697-4 0  9998
2 43850  85.0334 206.1271 0016397  46.7929 313.4679 15.22161578159159
STF-1                   
1 43852U 18104D   21301.36755201  .00004763  00000-0  19965-3 0  9995
2 43852  85.0363 206.6091 0016183  58.5404 301.7417 15.23110194159182
ZACUBE-2                
1 43907U 18111AH  21301.56820806  .00001666  00000-0  68065-4 0  9995
2 43907  97.2137 191.1210 0020890 177.0163 300.1794 15.25542110157927
LUME 1                  
1 43908U 18111AJ  21301.33253063  .00004158  00000-0  15932-3 0  9999
2 43908  97.2148 191.7066 0020046 174.7148 185.4307 15.26879425157944
AOBA VELOX-IV           
1 43940U 19003J   21301.38731573  .00008006  00000-0  28827-3 0  9991
2 43940  97.1633 340.4732 0019870 254.6096 105.2949 15.28646123154605
UNITE                   
1 44031U 98067PX  21293.33218668  .03273780  12126-4  74864-3 0  9994
2 44031  51.6249 329.2799 0004574   4.3404 355.7657 16.29226393155537
SPACEBEE-9              
1 44370U 19037F   21301.36531646  .00166637  00000-0  11252-2 0  9991
2 44370  44.9899 173.1394 0012357 238.0374 121.9326 15.73764217131985
MOVE-IIB                
1 44398U 19038N   21301.55405792  .00003744  00000-0  20625-3 0  9999
2 44398  97.5984 265.1345 0022651 207.2759 152.7285 15.14422966127905
SONATE                  
1 44400U 19038Q   21301.60581498  .00001625  00000-0  95611-4 0  9991
2 44400  97.6063 264.9307 0023592 208.5119 151.4817 15.12877677127865
LUCKY-7                 
1 44406U 19038W   21301.43937764  .00002539  00000-0  14534-3 0  9998
2 44406  97.6073 265.0807 0023031 207.5137 152.4876 15.13351370127859
BEESAT 9                
1 44412U 19038AC  21301.35852952  .00003386  00000-0  19027-3 0  9994
2 44412  97.6054 265.0717 0020785 212.4466 147.5489 15.13821597127553
JAISAT-1                
1 44419U 19038F   21301.41790583  .00003301  00000-0  18319-3 0  9999
2 44419  97.6058 265.7839 0019755 209.6919 150.3193 15.14306541127914
KRAKSAT                 
1 44427U 98067QM  21301.41016169  .00087527  00000-0  48592-3 0  9996
2 44427  51.6407 340.0784 0005851  32.8477  93.2572 15.78756575132383
VCC A                   
1 44428U 98067QN  21291.65818513  .14957728  12606-4  31716-3 0  9997
2 44428  51.6152   5.5392 0005040 286.7247  73.3229 16.46578482131173
DUCHIFAT-3              
1 44854U 19089C   21301.42984554  .00001239  00000-0  10478-3 0  9998
2 44854  36.9673  34.1203 0006637 134.6277 225.5048 14.99728220103077
EYESAT-NANO             
1 44877U 19092E   21301.41674559  .00004290  00000-0  20974-3 0  9999
2 44877  97.4624 123.2481 0014343  86.6641 273.6234 15.18672887103117
ORBITAL FACTORY 2 (OF-2)
1 45113U 19071C   21300.90669046  .00010048  00000-0  28172-3 0  9994
2 45113  51.6401 114.7419 0011485  55.2963 304.9101 15.37153282 97538
M2 PATHFINDER           
1 45727U 20037E   21301.45986247  .00001002  00000-0  10548-3 0  9993
2 45727  97.7215 116.4666 0014234  87.6941 272.5897 14.91488333 72246
NETSAT-4                
1 46504U 20068U   21301.58900248  .00000534  00000-0  45005-4 0  9998
2 46504  97.6967 237.4002 0014107  28.8694 331.3368 15.02278858 59224
NETSAT-3                
1 46505U 20068V   21301.59877996  .00000217  00000-0  21080-4 0  9998
2 46505  97.7003 237.3678 0014152  40.7886 319.4403 15.02260789 59233
NETSAT-1                
1 46506U 20068W   21301.54175988  .00000611  00000-0  50936-4 0  9996
2 46506  97.7010 237.2678 0012687  56.4568 303.7875 15.02240751 59228
NETSAT-2                
1 46507U 20068X   21301.54763414  .00000822  00000-0  66953-4 0  9994
2 46507  97.7008 237.2687 0011752  65.3216 294.9254 15.02219479 59176
SPOC                    
1 46921U 98067RR  21301.41333008  .00025822  00000-0  34240-3 0  9996
2 46921  51.6413  31.4997 0000990 258.1453 101.9429 15.58080141 55563
BOBCAT-1                
1 46922U 98067RS  21301.40554593  .00041725  00000-0  47271-3 0  9998
2 46922  51.6423  27.7293 0001665 311.5606  48.5245 15.61970012 55578
NEUTRON-1               
1 46923U 98067RT  21300.79846397  .00026817  00000-0  35746-3 0  9995
2 46923  51.6419  34.8901 0001334 272.6431  87.4408 15.57917805 55484
1998-067RU              
1 46924U 98067RU  21301.22113346  .00130234  00000-0  90497-3 0  9999
2 46924  51.6352  19.6427 0005690 347.1762  12.9092 15.73478221 55708
DESCENT                 
1 46927U 98067RX  21300.48218531  .00026446  00000-0  35220-3 0  9993
2 46927  51.6421  36.5236 0001916 285.4551  74.6230 15.57949959 55354
SAI-1 NANOCONNECT-2     
1 47701U 21015C   21301.20332159 -.00000071  00000-0  00000-0 0  9999
2 47701  97.4454  14.7886 0012361 186.9440 173.1684 15.23332022 36825
WARP-01                 
1 47924U 98067SA  21301.31541265  .00035534  00000-0  49332-3 0  9994
2 47924  51.6415  38.3132 0004026 262.8260  97.2274 15.56668236 35454
RSP-01                  
1 47925U 98067SB  21301.29902613  .00027940  00000-0  40704-3 0  9996
2 47925  51.6422  38.9679 0000677 170.9372 189.1631 15.55493261 35424
TAUSAT-1                
1 47926U 98067SC  21301.32113077  .00037047  00000-0  50696-3 0  9999
2 47926  51.6409  37.6047 0001085 172.7834 187.3173 15.57043311 35433
TSURU                   
1 47927U 98067SD  21300.55914793  .00025640  00000-0  38233-3 0  9997
2 47927  51.6425  43.0267 0000900 160.9479 199.1546 15.54906264 35309
STARS-EC                
1 47928U 98067SE  21301.45017964  .00035662  00000-0  49172-3 0  9991
2 47928  51.6417  37.7175 0004709 267.2199  92.8254 15.56848800 35432
MAYA-2                  
1 47929U 98067SF  21301.32627589  .00024550  00000-0  36568-3 0  9997
2 47929  51.6425  39.1486 0000961 154.1944 205.9095 15.54961901 35381
HIROGARI (OPUSAT-II)    
1 47930U 98067SG  21301.45564547  .00039570  00000-0  53100-3 0  9996
2 47930  51.6418  37.0157 0000158  39.9893 320.1111 15.57536829 35466
GUARANISAT-1            
1 47931U 98067SH  21301.32384184  .00023957  00000-0  35667-3 0  9990
2 47931  51.6426  39.1359 0000944 154.0400 206.0638 15.54991594 35422
SMOG-1                  
1 47964U 21022AJ  21301.27462237  .00003646  00000-0  24340-3 0  9992
2 47964  97.5440 201.1265 0018684 207.8444 152.1786 15.07504351 31885
MMSATS-1                
1 47976U 98067SJ  21301.54129036  .00008848  00000-0  15577-3 0  9996
2 47976  51.6449  41.2901 0001927 218.8765 141.2090 15.51267966 34199
BCCSAT-1                
1 48041U 21022AK  21301.28740652  .00002777  00000-0  18960-3 0  9995
2 48041  97.5442 200.9839 0015103 204.0845 155.9678 15.06915326 31850
RAMSAT                  
1 48850U 98067SL  21301.29502268  .00018400  00000-0  30572-3 0  9999
2 48850  51.6429  42.6589 0003997 281.2100  78.8440 15.52124683 21124
SOAR                    
1 48851U 98067SM  21301.42224144  .00056239  00000-0  73332-3 0  9992
2 48851  51.6390  39.7442 0005151 294.6060  65.4396 15.58137545 21213
BD-28                   
1 48867U 98067SN  21300.57319088  .00019939  00000-0  32668-3 0  9999
2 48867  51.6421  46.0897 0003264 313.3314  46.7404 15.52460256 19765
MIR-SAT 1               
1 48868U 98067SP  21301.42587107  .00040130  00000-0  60039-3 0  9994
2 48868  51.6417  41.2850 0003376 299.1325  60.9327 15.54578292 19937
1998-067SR              
1 49272U 98067SR  21301.57006548  .00018403  00000-0  32448-3 0  9996
2 49272  51.6428  42.9858 0004573 173.6766 186.4282 15.50445760  3532
1998-067SS              
1 49273U 98067SS  21301.56963268  .00022861  00000-0  39954-3 0  9999
2 49273  51.6427  42.9835 0004261 171.3863 188.7200 15.50546599  3531
1998-067ST              
1 49274U 98067ST  21301.57016687  .00022823  00000-0  39947-3 0  9995
2 49274  51.6427  42.9871 0004157 169.9646 190.1427 15.50505792  3536
CUAVA-1                 
1 49275U 98067SU  21301.58634535  .00019366  00000-0  33908-3 0  9994
2 49275  51.6442  42.8798 0004702 178.7755 281.1898 15.50606039  3489
